name,googleId,latitude,longitude,googleMapsUri,websiteUri,address,shortAddress,phoneNumber,photo
Academy Lane Apartment Homes,ChIJ8cA3dKIphYAREie0GPKQfY4,38.5551655,-121.74247690000001,https://maps.google.com/?cid=10267522094945543954,https://www.academylane.com/?utm_source=GBP&utm_medium=organic,"1124 F St, Davis, CA 95616, USA","1124 F St, Davis",(530) 290-6165,https://lh3.googleusercontent.com/places/ANXAkqGemIg-MnKYwnEHtsYNNFY4ULao0Q1I1wcnPxLylZQswL5_zHDuA1UrH3kIVBCPJUg2Qtl0UUIetKnhJmlCO3brbYNsgKmcaok=s4800-w600-h400
Orchard Park Apartments,ChIJ____s1QohYARuH1x_SWGQxo,38.5448052,-121.765171,https://maps.google.com/?cid=1892503766149725624,https://housing.ucdavis.edu/apartments/orchard-park/,"Orchard Park Cir, Davis, CA 95616, USA","Orchard Park Cir, Davis",(530) 747-7224,https://lh3.googleusercontent.com/place-photos/ADOriq35O6XB9FUnF_Sbm52xVGPBOzcgLKQ6IFLZb5PiNXIHNs8U5E5z_0bnHzI_WzOfO3KzS6q3CeLK9dhiVloL70wxg5qTAAaZdvylkiscbX1R2SD60dtFGsk2q2o9hQHHu7Kw5fr_=s4800-w600-h400
Lakeshore,ChIJ04O3_z8ohYARgaJauWhiZQk,38.553548000000006,-121.78843350000001,https://maps.google.com/?cid=677055520914973313,http://www.lakeshoreapt.com/,"1175 Lake Blvd, Davis, CA 95616, USA","1175 Lake Blvd, Davis",(530) 757-7926,https://lh3.googleusercontent.com/places/ANXAkqHoBaVZ3ebrSRvaEZ9OJmnBAL2gX7ZT3iQ7qDiepUyR61dQpXrxN7Hx6Z5pNtBHEIC_lgb3X7Vzr9JsIBsjaTcBkNinKZWCyYM=s4800-w600-h400
Avalon Apartments,ChIJM2kdNmEphYAR68NUO5j-vkk,38.538311,-121.72467800000001,https://maps.google.com/?cid=5313964540127658987,http://www.liveavalondavis.com/,"1617 Valdora St, Davis, CA 95618, USA","1617 Valdora St, Davis",(530) 231-5719,https://lh3.googleusercontent.com/places/ANXAkqGL-TrRIBWPpSqsu1yrjSQm7buOoOktKZ1Lfkob9HYAEj9qyxohY2FYhhcBQvbB0g9K6jJ1M8qUvfh1ubSekq5s8_t2r-9LOk4=s4800-w600-h400
Sherwood & Forest Arms Apartments,ChIJpey5BRMphYAR83JKZxGrBTE,38.5485591,-121.7653588,https://maps.google.com/?cid=3532417573977748211,https://www.rentingdavis.com/sherwood-arms-apartments/,"1411 Wake Forest Dr, Davis, CA 95616, USA","1411 Wake Forest Dr, Davis",(530) 758-8711,https://lh3.googleusercontent.com/places/ANXAkqHM63nncAb5YLQD23uZYMS6MtA4TeoHkezLZeOBtGyRivT1cIE-1UK1EWkdBTeuRkXz0BOknoxHcUcQ7FwUuEMPRS7AucvhQRM=s4800-w600-h400
J Street Apartments,ChIJn7a_apgphYARO2cksvcxY6Q,38.5568567,-121.74148710000001,https://maps.google.com/?cid=11845366384829949755,https://www.jstapts.com/,"1111 J St, Davis, CA 95616, USA","1111 J St, Davis",(530) 756-2100,https://lh3.googleusercontent.com/places/ANXAkqFo25RV427JxU2BRnSae6gfqoHqYiRu1fKg3qOpD15ICjLiBc-HV_e1LcqR709WvyAfQZbXSLd27WEfDaU1rZSf7LUClPUfJgY=s4800-w600-h400
The U Apartments,ChIJmRQHw30phYARr125i_BW_Sg,38.5496102,-121.7208849,https://maps.google.com/?cid=2953612521761234351,https://www.theudavis.com/?67805&utm_source=obl&utm_medium=organic,"625 Cantrill Dr, Davis, CA 95618, USA","625 Cantrill Dr, Davis",(530) 513-6145,https://lh3.googleusercontent.com/places/ANXAkqGyj3QGNLjumrxsLwxkFbmpA0qpa_JI7uak2rWpDGS_Kadcs3ieeMw3DlibNPsWCu52KhZhiNxFu3NetbN1CaXEA0GceTeGjuM=s4800-w600-h400
Davisville Management Company,ChIJ3aiNr30phYARup-W1ucKKg4,38.548474999999996,-121.72145750000001,https://maps.google.com/?cid=1020640256406757306,https://www.davisapartmentsforrent.com/,"2525 2nd St, Davis, CA 95618, USA","2525 2nd St, Davis",(530) 758-5800,https://lh3.googleusercontent.com/places/ANXAkqG-rJlpQmtMxJuRZGu2LBToh-irOmbNUWf0VQkOIwE7rdO4HIxtwBZTvNB4HV0QngDCmLoNM0rIZ_f-s1yV2kPvAHBM_5ulmOw=s4800-w600-h400
Alvarado Parkside Apartments,ChIJBy7qubkphYARIXNuAHFhLMQ,38.5613515,-121.75182029999999,https://maps.google.com/?cid=14135780468375581473,https://www.rentingdavis.com/alvarado-parkside,"520 Alvarado Ave, Davis, CA 95616, USA","520 Alvarado Ave, Davis",(530) 758-7070,https://lh3.googleusercontent.com/places/ANXAkqGi1U1yeT9FJKStMwNlwjurdDZKz4XM1hQfP2cktugTic7aducudyNchzpSFsfDY-LJo8qtMRJXmzdaZU3ZW70OIwXUS50thsU=s4800-w600-h400
Greystone,ChIJg472R34phYARi59rxmWwmVI,38.5530083,-121.7205796,https://maps.google.com/?cid=5951982333713948555,http://www.greystoneapts.com/,"2505 5th St, Davis, CA 95618, USA","2505 5th St, Davis",(530) 758-2200,https://lh3.googleusercontent.com/places/ANXAkqFK75cUCLlHONKaj5TR-Z5WPc9E9ibIwrAOCsqSPw57LIzNz9KQVVdV2fh8m80bICab_GfOPpFcaR2BbRSFDv7C9P8pi0bSd2Q=s4800-w600-h400
University House,ChIJod6MxnYphYARhVIIvjnCuUA,38.546600999999995,-121.73460589999998,https://maps.google.com/?cid=4663972442376000133,https://www.simmonsre.net/university-house,"320 K St, Davis, CA 95616, USA","320 K St, Davis",(530) 753-3636,https://lh3.googleusercontent.com/places/ANXAkqHgVJgFwIkViwQVCgrnYALyG1LBiij4_3OWrZcJv21voluOo1RAo1SltnBPsXcKbXotf1JK9jLqp3feMAQe3qE7iX3_VbGvOec=s4800-w600-h400
MarCo at the Cannery Apartments,ChIJ0wd3iGcphYAReQJ19phA8Pg,38.5616422,-121.74235929999999,https://maps.google.com/?cid=17937908341530755705,https://www.marcocanneryliving.com/,"2500 Cannery Loop, Davis, CA 95616, USA","2500 Cannery Loop, Davis",(530) 404-0568,https://lh3.googleusercontent.com/places/ANXAkqFRr-xHSz_Xt5HZXCuwC1rQE2lAxa1dKnMjtDjh-aH6uLyVlG86QB9UmZdntX3lI2BIxeazBXtkbhC9coSFGLRbk_f8_Mp0uew=s4800-w600-h400
Cottages on 5th,ChIJu95lSl4phYARLiKU8T-0u5k,38.549568099999995,-121.72605129999998,https://maps.google.com/?cid=11077645895176823342,https://www.daviscottages.com/?switch_cls[id]=95024&utm_source=google%20-%20entratammb&utm_medium=organic&utm_campaign=gmb&utm_content=website%20click,"500 Pole Line Rd, Davis, CA 95618, USA","500 Pole Line Rd, Davis",(530) 758-3240,https://lh3.googleusercontent.com/places/ANXAkqHN09qpRdBqW3UXpUrrriQgTBLfgRT9ULDsTOe16US7LH_yRlcVVLlXraa74o_605sRllBpW4x9hLg6csIOqX0gD49nBOQsUTk=s4800-w600-h400
Sorrento Apartments,ChIJM2kdNmEphYAR7NZl0zc4HI0,38.5395013,-121.7230862,https://maps.google.com/?cid=10168063871116760812,http://www.livesorrentodavis.com/,"1540 Valdora St, Davis, CA 95618, USA","1540 Valdora St, Davis",(530) 290-8359,https://lh3.googleusercontent.com/places/ANXAkqGLaLBmuXWWZV_ylkjrTnzUxwqOOOsHjuAZPzSoFmUIG5JPx8zct6NywyX4Fgx8-cpyq7PgMpDPhMoGpAlJ5iLUeuWkkv7qS6E=s4800-w600-h400
Identity Davis,ChIJxcWb-DIphYARCZ1kIWKXqAA,38.5469483,-121.76469110000001,https://maps.google.com/?cid=47454243810221321,https://www.identitydavis.com/?utm_perq=gbp,"525 Oxford Cir, Davis, CA 95616, USA","Sigma Nu Fraternity, 525 Oxford Cir, Davis",(208) 261-1851,https://lh3.googleusercontent.com/places/ANXAkqGkUNgRycLBT3X6rhD8i0ORTQMy_VF33P9Juf1V2Et5BKPRAj2yOpsRqZjy_9ynCNfXruadlNgN5ABMzXOn7P_JcEIwuJV2-b8=s4800-w600-h400
College Street Apartments,ChIJCSCSxIIphYARxFx_9719V_U,38.5536962,-121.72994340000001,https://maps.google.com/?cid=17678737117120781508,https://www.rentingdavis.com/college-street-apartments/,"1805 E 8th St, Davis, CA 95616, USA","1805 E 8th St, Davis",(530) 757-7368,https://lh3.googleusercontent.com/places/ANXAkqFbdDnYB_CXo9wwnjQjR0JlbePAb1HE64uH4ap9ARAYBEPQTFMgxESsMYLUkx9dHJcFZyabkvw0H1-H4qP9zWJ0mPLCO5xVA_g=s4800-w600-h400
Seville at Mace Ranch,ChIJTSs8QMorhYARiWoNxCBjc2Y,38.5596885,-121.69675439999999,https://maps.google.com/?cid=7382353206569691785,https://www.liveattheseville.com/,"4501 Alhambra Dr, Davis, CA 95618, USA","4501 Alhambra Dr, Davis",(530) 461-5118,https://lh3.googleusercontent.com/places/ANXAkqFT6uOkYuVznPOHzEuAV0t5GeKC6nKRAErJlf8oGCakg4aGHXVkXc0pjTT3GB4MvOZbHd8IZI17cFY0-g04CONZ805x49e6-2o=s4800-w600-h400
DaVinci,ChIJGZAau2gphYARkH52E12WjYM,38.5366114,-121.73174669999997,https://maps.google.com/?cid=9479398117187419792,https://www.liveatdavinci.com/,"1666 Da Vinci Ct, Davis, CA 95618, USA","1666 Da Vinci Ct, Davis",(530) 750-5100,https://lh3.googleusercontent.com/places/ANXAkqHn1PJvtGIe1ArDrwf8rPLz_wLmCHzwR5Ntnb1cbmnRFaomlzhaes-svfOj4622pWrvT1e2QjJ6kXtyvAHONnhOm17z4duRT_8=s4800-w600-h400
Westwood,ChIJp0GiuU0ohYARaAseYnYqzLA,38.5511641,-121.7686749,https://maps.google.com/?cid=12739604133864934248,https://www.westwoodaptliving.com/,"800 Adams St, Davis, CA 95616, USA","800 Adams St, Davis",(530) 753-3441,https://lh3.googleusercontent.com/places/ANXAkqHEz4O-C6odyWwebJKMSCZVaEY5Hc4iwSaXJObuTis9c1DgTGEkdc3lwlquK5YYr7-0xyi6jUQM3DNpaCAmNhDyRG190187NPk=s4800-w600-h400
La Casa de Flores Apartments,ChIJ9W1Cs6wphYAR13YDcrf1ezs,38.5469627,-121.7651901,https://maps.google.com/?cid=4286289638613808855,http://www.lacasadeflores.com/,"517 Oxford Cir, Davis, CA 95616, USA","517 Oxford Cir, Davis",(530) 756-7699,https://lh3.googleusercontent.com/places/ANXAkqGHUh4mZsOw_dAVeMI5IkPZHLZmZtDTt2YJljqv9gTC2zn6HXqRCasghZeVC3DMIFUllzCqd0ag-hmpYDMY7DxYQOGIm6Jb-pU=s4800-w600-h400
University Court,ChIJo5IZgKwphYARFtrVdwa4DBo,38.5469777,-121.76250990000001,https://maps.google.com/?cid=1877077482626472470,http://universitycourt.net/?utm_source=google%20-%20entratammb&utm_medium=organic&utm_campaign=gmb&utm_content=website%20click,"515 Sycamore Ln, Davis, CA 95616, USA","515 Sycamore Ln, Davis",(530) 753-5429,https://lh3.googleusercontent.com/places/ANXAkqF7hZ9rCGHpiz4vYq65I--LF1Ct6UqC9puqaDBRDYrMYAU8JqnVES4s6QfeM79ciEPY3MavRpdQ_IgeanNCb4-Jw-VFtBz5Apw=s4800-w600-h400
Chaparral Apartments,ChIJK9jJFzMohYAR1Nzt-XoRrBY,38.566287,-121.76664000000001,https://maps.google.com/?cid=1633699984705445076,http://chaparral.tandemproperties.com/,"2689 Sycamore Ln, Davis, CA 95616, USA","2689 Sycamore Ln, Davis",(877) 837-6795,https://lh3.googleusercontent.com/places/ANXAkqGSYiWoOBS8pdPPSisFYzUNIUoqpHkWQ-6VgnfGl8cxG-U1_mbenX5BvnYd2rCaBY5t-eNiQ_m57uc_RpA3ylmRLiCGGYRdng0=s4800-w600-h400
B St Apartments by Brittain Commercial,ChIJezwfeeYphYARDsguds_h8tk,38.5431452,-121.74491799999998,https://maps.google.com/?cid=15704863131751598094,https://www.brittaincommercial.net/,"217 B St, Davis, CA 95616, USA","217 B St, Davis",(860) 785-2168,https://lh3.googleusercontent.com/place-photos/ADOriq3wCH0BUaqOsJDvYalopxMi7SnFQf8MOf9NRcC5R7Q4KgqTqlFoxMtmAN1L5Hvr5ztpH0YN7ICm1D44MM7gn5USx3E6TH9wq-7R4V9FV_yBwvij_uA2MGMkibsPuo29KiQlQCpnJw=s4800-w600-h400
298 Celadon,ChIJFf2xaAAphYARscgIUp9UPVQ,38.5425344,-121.77310100000001,https://maps.google.com/?cid=6070100916018137265,,"298 Celadon St, Davis, CA 95616, USA","298 Celadon St, Davis",,
Almondwood Apartments,ChIJZ7Ynh8ophYARuLLFYMVw1SM,38.561346,-121.76352299999999,https://maps.google.com/?cid=2582093954401284792,https://www.davisapartmentsforrent.com/almondwood/,"1212 Alvarado Ave, Davis, CA 95616, USA","1212 Alvarado Ave, Davis",(530) 753-2115,https://lh3.googleusercontent.com/places/ANXAkqH4gjYCoFhLBXlgG_5CbeMag3iUXVLmIGeVbQJ3xwM6oENUqt79LXLy7hEFLdAumv0UqMbn--jxutAFP37V0qfgZa4esH1Fe0s=s4800-w600-h400
The Celeste,ChIJlXmXLeIrhYARbzx_kLtHink,38.55001610000001,-121.70357240000001,https://maps.google.com/?cid=8757891296284064879,http://liveatceleste.com/,"3820 Chiles Rd, Davis, CA 95618, USA","3820 Chiles Rd, Davis",(530) 564-3820,https://lh3.googleusercontent.com/places/ANXAkqFrHrhe9Fuld2KjYye467k1I8DtG7YvkIL89fciN4WcBPKIg_8Xt21E1RH8jJSgTjzbAm3y7rhRhKv3Am5xmq5E31-gCS8dg4k=s4800-w600-h400
The Green at West Village,ChIJNd_8UdcphYAR16TqXuG4uzM,38.541814699999996,-121.77679789999999,https://maps.google.com/?cid=3727776394678805719,https://thegreen.ucdavis.edu/,"2228 Tilia St, Davis, CA 95616, USA","2228 Tilia St, Davis",(530) 752-2033,https://lh3.googleusercontent.com/place-photos/ADOriq2cZ_8Br3BGh5p4CavEQGvLs29VJA2djX2rN5uXOobhhFLNZ1kB-QKfemCyhk4NPSmdJ66G4Ii6WcKeymPw3QyvCvnBlN0lDRqb4iTbdcIK1L5wvUPXtLN5xvQQLSEFHbOvpt_KUA=s4800-w600-h400
Casitas,ChIJkX8cEcophYARn7C4DKmhyzg,38.5623164,-121.75822850000002,https://maps.google.com/?cid=4092542433831202975,http://casitas.tandemproperties.com/,"717 Alvarado Ave, Davis, CA 95616, USA","717 Alvarado Ave, Davis",(877) 850-5994,https://lh3.googleusercontent.com/places/ANXAkqFFV-0OTDWJcvP7n0kdyGEiMeffwPzuHqgTfk6PAWQwyvHM99dKQTPkHjXaTZa2-cmA-UGVbs6MWsjC2d5AT11MgYBI3iSwWvM=s4800-w600-h400
The Spoke,ChIJ122ZHp8phYARQqRhM7SaH0w,38.5536155,-121.7400588,https://maps.google.com/?cid=5485272969907381314,https://livethespoke.com/?switch_cls[id]=98512,"801 J St, Davis, CA 95616, USA","801 J St, Davis",(530) 513-6375,https://lh3.googleusercontent.com/places/ANXAkqGGPzbrevPE5vv2Tc3RK2ZutmlBqZn7F-b9rMJspsgKqdUSSx_sNLORM2zohi2U17S8nrYUD-hHSBZ5TudyVIAc4kLdfySxgdM=s4800-w600-h400
Temescal,ChIJ5ZxFpjQohYARyY84fIoPrXU,38.5646434,-121.76602739999998,https://maps.google.com/?cid=8479450760872497097,https://www.temescalapartments.com/?utm_source=GBP&utm_medium=organic,"2477 Sycamore Ln, Davis, CA 95616, USA","2477 Sycamore Ln, Davis",(530) 298-7698,https://lh3.googleusercontent.com/places/ANXAkqFff0qtvauGxTzA9EjOWXi6TeIRtYYYJdO_G_51t8YkCIRon45DCoIu16DJ69OO9_i57cEwi-mw53BZ74F7c37SzU9VeZOr7nA=s4800-w600-h400
Sycamore Lane Apartments,ChIJtR5SbKwphYARO32tiMzpHzI,38.5481719,-121.76038360000001,https://maps.google.com/?cid=3611862490850098491,https://www.sycamorelanedavis.com/,"614 Sycamore Ln, Davis, CA 95616, USA","614 Sycamore Ln, Davis",(530) 756-4186,https://lh3.googleusercontent.com/places/ANXAkqHPv8fZPf3UC__vwiaXJHUjKy5G_PR7rO_G6rCpm8YZpEbzU1UsD3u7Om_gSzS7yiqVPkkXOHkaI0jDLF9f8VE2OJL2hHl7Hno=s4800-w600-h400
Eleanor Roosevelt Circle,ChIJaXpOtLUphYARJBR4L0CBFp0,38.5509351,-121.72055060000001,https://maps.google.com/?cid=11319376826116609060,,"675 Cantrill Dr, Davis, CA 95618, USA","675 Cantrill Dr, Davis",,https://lh3.googleusercontent.com/place-photos/ADOriq3X3wAcvQ5_OTyfyXhtazb8O-g0QJfJFYt1lv3u1isZVX8yk-8zlBag9P-nJauGeH_X6rliRDVUZo7THE26PUEdBBOMzBz4zp-51DYy-OFkc-xGHmITuPnzhI7gohK9fSjCVbeDYw=s4800-w600-h400
Cascade Apartments,ChIJzch2lHgphYARdX1Ydrncyuw,38.552854499999995,-121.72751740000001,https://maps.google.com/?cid=17062692827359116661,https://www.rentingdavis.com/cascade-apartments/,"771 Pole Line Rd, Davis, CA 95618, USA","771 Pole Line Rd, Davis",(530) 758-4601,https://lh3.googleusercontent.com/places/ANXAkqHcrQHBTW9w7kxJjvRyfVaBjsy3Bd-zUJ6DERJ0inItwboSY9xbyDvOrU6u06H3NvFrz4QAhWJUHcV7Ew5OVvpJNK8zBU_NE2k=s4800-w600-h400
Pinecrest Apartments,ChIJlaApdJcphYARsF0W43Y_9vk,38.5591405,-121.7407546,https://maps.google.com/?cid=18011653539563462064,https://www.pinecrest-davis.com/?utm_source=GMB&utm_medium=organic,"920 Cranbrook Ct, Davis, CA 95616, USA","920 Cranbrook Ct, Davis",(844) 890-0837,https://lh3.googleusercontent.com/places/ANXAkqGF_OtHldwsYwwbccUv-6RyaDh5xjN64qs9lbpbKHtAkJQdaEhzVZ6nHiJE_a7Ji5CfnX-nLzShNCvvYU_L4VTF3Ino6NTJY1Q=s4800-w600-h400
Russell Park Apartments,ChIJwc8ZF6sphYARRKqVv_P4hSo,38.543923,-121.763966,https://maps.google.com/?cid=3064128847270488644,http://russellpark.tandemproperties.com/,"Russell Park Community Center, 400 Russell Park, Davis, CA 95616, USA","Russell Park Community Center, 400 Russell Park, Davis",(877) 801-7285,https://lh3.googleusercontent.com/places/ANXAkqFTkoYUYBzClmFDYQtFWNCM2pLrO5mLPlhFm1bGslVL2mzeglPKp7qwoGLDxE0Tq77pdwz4PKy28yD0r5JyDL1HPyKUFarhxLY=s4800-w600-h400
Gate Way Properties,ChIJJQJ6H9YrhYARy8pnBTT1NsI,38.548491899999995,-121.7214735,https://maps.google.com/?cid=13994642495878187723,,"2525 2nd St, Davis, CA 95618, USA","2525 2nd St, Davis",(530) 758-7666,https://lh3.googleusercontent.com/places/ANXAkqE60m4-wkAZ5WKWYLADPRYRbBVwQX7T2tjezl3uxIntcH0jQEZwhJPurOCBWaNPL9AiicGkZrwaW9CyCEjnCV_I3IM7tyFFWfw=s4800-w600-h400
Cannery Village,ChIJW51y_b0phYARxXOyrKpTfdE,38.5622477,-121.74289739999998,https://maps.google.com/?cid=15095313518522692549,http://www.bartlettcommons.com/,"900 Jacobsen Ln, Davis, CA 95616, USA","900 Jacobsen Ln, Davis",(530) 368-4825,https://lh3.googleusercontent.com/place-photos/ADOriq0PZ7cWySr-jXRlRp1sIZR_XJcOXgmX5Ho9T-2_TPHw03N-kia31hwLhzvrfnOPdOqd4rw7gcsrZlROezC6S8C2p68GRqUhxzTNN2BJFqp6XDQsjWsfvw5mXiEUXB5txGb_Ezn6=s4800-w600-h400
Axis at Davis,ChIJJV9eSnQphYARUikHeRQTfyk,38.545555900000004,-121.72338970000001,https://maps.google.com/?cid=2990129656248084818,http://axisdavis.com/,"2555 Research Park Dr, Davis, CA 95618, USA","2555 Research Park Dr, Davis",(530) 297-8580,https://lh3.googleusercontent.com/places/ANXAkqE3ifcRprzSBPoZE6o7UI2-OFbQqq1TWme5fxBuqhucbuM6RaMb9AcYMLfoZvpjvgvwXzNBesCbnbWjfpt1pRj1wLHrZVDlU20=s4800-w600-h400
Suntree Apartments,ChIJeZ06nL4phYARJVaBYB2KiJM,38.561521,-121.74621799999998,https://maps.google.com/?cid=10630898779185829413,http://suntree.tandemproperties.com/,"2033 F St, Davis, CA 95616, USA","2033 F St, Davis",(877) 893-5860,https://lh3.googleusercontent.com/places/ANXAkqEgDZ6sQs8t5D0co9WrHmjdUjm94v0ghZgrPIyOKsN6Rgt7ItdhIii44ZgymELjSXZEu2Bz7K-_ICdpbPys1wsxlyyTKRZKfG0=s4800-w600-h400
Tandem Properties,ChIJeX5D7cQphYARCntqlQe17c8,38.572792299999996,-121.7495613,https://maps.google.com/?cid=14982830579507690250,http://www.tandemproperties.com/,"3500 Anderson Rd, Davis, CA 95616, USA","3500 Anderson Rd, Davis",(530) 756-5075,https://lh3.googleusercontent.com/place-photos/ADOriq2_mmCl249C1ZD77WiRfiU8ZUThA_zpcs3WvPOYA_H2dkCvYD-9tQmwNdcs9uDSstMivg3hzoNkPTY8-FeNbsqOSKSkGWXSg5EHdxROcRHdlUyQKjLIK4kb-Ftv9JkFotrp8xw=s4800-w600-h400
La Salle Apartments,ChIJcREk9LUphYARqIpyijZUK1E,38.5614457,-121.760459,https://maps.google.com/?cid=5848861134298450600,http://www.lasalleapts.com/,"880 Alvarado Ave, Davis, CA 95616, USA","880 Alvarado Ave, Davis",(530) 753-5155,https://lh3.googleusercontent.com/place-photos/ADOriq0_hOGCiTaf-GZCyT1G50r8rcfttPDZvFKOJwE4B-TBj77OocDSi2VfpXbOfr3Y_USaMgDTy965ERmozX5AvabqoBNvUyUL5HCdiosjq7628wkBRAkpCaJFAhB_YDc4k9oiahuj=s4800-w600-h400
Portage Bay,ChIJ_6XTBmoohYAR_o1LOALacKY,38.5494164,-121.78774849999999,https://maps.google.com/?cid=11993325510756896254,http://www.portagebayapts.com/,"2949 Portage Bay W, Davis, CA 95616, USA","2949 Portage Bay W, Davis",(530) 758-3190,https://lh3.googleusercontent.com/places/ANXAkqF6YRCXFkh8LhdgoSU-P2Nsq1FZ6Xkwm6CpNlShHiTv861aTx2ZNt7s07-8U_14FuaIZKh6Pq0pCgZ_91wz1rRsQVPTtiT6z8U=s4800-w600-h400
Greenbriar,ChIJM0FB-KEphYARhFoKwZDW5g0,38.552799199999995,-121.74320979999999,https://maps.google.com/?cid=1001723884338829956,http://www.greenbriardavis.com/,"581 9th St, Davis, CA 95616, USA","581 9th St, Davis",(530) 753-0710,https://lh3.googleusercontent.com/place-photos/ADOriq1Tl-gEBEr5u42YjEHisTIIU9aUMkowWLIB_ZdPGwYe2eqXug-ccKDtrLtjmh0zlY2sSzoa8yTSjTiALks-LomZajolJxYbKQd5hB5DNGZA33B6KOIEjjKUPY2PHPfMPOCqY4Z4tg=s4800-w600-h400
怀仁堂,ChIJYYtVXwAphYARzLrTEXeorrU,38.537448999999995,-121.77113499999999,https://maps.google.com/?cid=13091586396166273740,,"1721 Hutchison Dr, Davis, CA 95616, USA","University of California Davis West Village, 1721 Hutchison Dr, Davis",,
Ryder on Olive,ChIJn3ZNdCgphYARUcREfrSP3cs,38.54303850000001,-121.7357688,https://maps.google.com/?cid=14690055564927747153,http://ryderonolive.com/,"1133 Olive Dr, Davis, CA 95616, USA","1133 Olive Dr, Davis",(530) 513-6357,https://lh3.googleusercontent.com/places/ANXAkqEMVsKGMwQX0Kp2vOvJGkJBRCMeFc1sQecax08Jy5fhj6Mh-dfX3REKbbV6hzT-0MDTqDLpxrXKtyJwm0tgtjqOMSGTLa6WUZE=s4800-w600-h400
Lexington Apartments,ChIJx30F7XEphYAR1Q0SSQtQZ-U,38.542049399999996,-121.73550409999999,https://maps.google.com/?cid=16530268966687477205,http://thelex.net/,"1100 Olive Dr, Davis, CA 95616, USA","1100 Olive Dr, Davis",(530) 758-1541,https://lh3.googleusercontent.com/places/ANXAkqG1bxmncsSab0lLgGNILlMOLEDjwNM2iESQfEWTEzE31fcAVUxHPl6xHcBOVg1aVAb83eZowRtCEPcT6i1MuzKTBdhd-O5pK_E=s4800-w600-h400
Eastlake,ChIJbyEL2j8ohYARwjk2NQJMucA,38.5558814,-121.78692489999999,https://maps.google.com/?cid=13887214498340026818,http://www.eastlakeapts.com/,"1420 Lake Blvd, Davis, CA 95616, USA","1420 Lake Blvd, Davis",(530) 758-5253,https://lh3.googleusercontent.com/places/ANXAkqGU0lLc0Z20CjjWyyv4F8TZ633NofkQGwtbN6xHDYkpttDbnENEUfn_mml13FXJc5QuGTsYI5X9ROVIByh-wwJ0Rm1gf6-ZEPw=s4800-w600-h400
The Colleges at La Rue Apartments,ChIJ_U9p9QAphYARItEorYXUibY,38.5411742,-121.76214509999998,https://maps.google.com/?cid=13153277857313116450,http://colleges.tandemproperties.com/,"164 Orchard Park Dr, Davis, CA 95616, USA","164 Orchard Park Dr, Davis",(877) 857-7521,https://lh3.googleusercontent.com/places/ANXAkqFq7R0CxrB27c1cgxQ33tsGdW7T7YtnUGxz_Cp1weksw1rJApECEk17huJvOmCt4ixCGB_Tcbrje2hme95q5PX3nf15Bu2xI98=s4800-w600-h400
Cesar Chavez Plaza,ChIJlcViuHEphYAReAvL0zyQ1eg,38.5424437,-121.73476069999998,https://maps.google.com/?cid=16777474577764387704,https://jsco.net/property/cesar-chavez-plaza/,"1220 Olive Dr apt 141, Davis, CA 95616, USA","1220 Olive Dr apt 141, Davis",(530) 759-9887,https://lh3.googleusercontent.com/place-photos/ADOriq1HakX6WDsL8MZa3gP9-9N99wxWN5V1UiERS-hX1mv31HBF58xG-92mqtnlDu1brFG3fKQvEF1FDC_UyYOOpbp2SK6dNGl41c4FCOXAzNc9u4tzOsJfey6AeHeE807yNWNIT2Nt=s4800-w600-h400
Terracina at Wildhorse | Affordable Apartments,ChIJvfPPNY0phYARhsujf5fzqRc,38.5709369,-121.7300407,https://maps.google.com/?cid=1705161765943495558,https://terracinawildhorse.usamfm.com/?utm_source=GMB&utm_medium=organic,"1800 Moore Blvd, Davis, CA 95618, USA","1800 Moore Blvd, Davis",(530) 758-1267,https://lh3.googleusercontent.com/place-photos/ADOriq3EHDNO_LgOiRmPfWY6pD7YxwvvKV0mgBKSVmwN2IoK0q9asbVLODLwbcsG1SIWS74TsfNEStqov028I2CQB3y3T0c5NwmF493WvJQzDgLiCpw1ROdu0HeDIzMSiy_PPbg5UYZBXg=s4800-w600-h400
Greenhaus Apartments,ChIJI93s-xcphYARzxOUL4W-y0w,38.5416496,-121.73101360000001,https://maps.google.com/?cid=5533726046392947663,https://greenhausdavis.com/,"1720 Research Park Dr, Davis, CA 95618, USA","1720 Research Park Dr, Davis",(844) 794-9601,https://lh3.googleusercontent.com/places/ANXAkqE9p0PyJWbPjNKy-Lz6JrMYfapxKvMDctl1wx0b4w_cX9lPtWyIA659bRp-RtOmaf4SBDiswOPJVu7ssTYJ9IcpNswjSbOnPOc=s4800-w600-h400
Alvarado Sunset,ChIJnYdJf7cphYARjndRGrUnkjc,38.5611648,-121.7530136,https://maps.google.com/?cid=4004306677469902734,https://www.alvaradosunset.com/?utm_source=GMB&utm_medium=organic,"606 Alvarado Ave, Davis, CA 95616, USA","606 Alvarado Ave, Davis",(530) 756-1220,
Stonegate Village Apartments,ChIJiZCtekIohYARFbxHzuZ3_5Q,38.5474229,-121.78719009999999,https://maps.google.com/?cid=10736431869861542933,http://www.stonegatevillageapt.com/,"2950 Portage Bay W, Davis, CA 95616, USA","2950 Portage Bay W, Davis",(530) 756-2950,https://lh3.googleusercontent.com/places/ANXAkqHfz-v--MVI86OPayB9ty_GJBzKIp34dZQfB0y9LjENhxok6yGR4fTECEZ_GweFLPkUYxrCtCx7Crhb_MGHqbnXvujaxrXQTtE=s4800-w600-h400
Clubside Apartments,ChIJtVr5FUAohYARl-H8GJK3DxE,38.552646599999996,-121.7870178,https://maps.google.com/?cid=1229403061407768983,http://www.clubsideapartment.com/,"1050 Lake Blvd, Davis, CA 95616, USA","1050 Lake Blvd, Davis",(530) 753-6507,https://lh3.googleusercontent.com/places/ANXAkqE2iyIWvof44M_B7qqBhBw5EjmuGhAyNyC0qJY_SJFkOVb7g1mhn21u5n7ewHbFH8BHoz48njnEt8bjs_ft7Kq_9q0n08aKiVw=s4800-w600-h400
Renaissance Park Apartments,ChIJkQggWtkrhYARo1k5qkUxiiY,38.5425458,-121.7147354,https://maps.google.com/?cid=2777086295505721763,https://www.renaissancepark-davis.com/?utm_source=GMB&utm_medium=organic,"3000 Lillard Dr, Davis, CA 95618, USA","3000 Lillard Dr, Davis",(833) 531-2813,https://lh3.googleusercontent.com/places/ANXAkqEyNvBK_y1U4_F9a2FYJIsMYbT3AcqkiUeRQVOKORSg7cKUC24K6BNUdWK7hIVpdmrpFwBHCckck_tNXSoKwPIjXoSyneFqgbg=s4800-w600-h400
Adobe At Evergreen Apartments,ChIJJZ9VaDYohYARyucU7yZq_tE,38.560068,-121.771035,https://maps.google.com/?cid=15131648513463871434,http://adobe.tandemproperties.com/,"1500 Shasta Dr, Davis, CA 95616, USA","1500 Shasta Dr, Davis",(877) 850-5991,https://lh3.googleusercontent.com/places/ANXAkqHsCPfmiQyJycDupSxKZ1KKGc58DML9UYpKCfRvlmyQD00nxcx4vpauAEcKfkuuPFHSttfKqJdD70ucqW_DGCPFnFyAfM4Ogfk=s4800-w600-h400
Heather Glen Apartments,ChIJDyPh3x0phYARO2bzWqmHNiI,38.5545683,-121.78044860000001,https://maps.google.com/?cid=2465307007477048891,https://www.chochousing.org/heather-glen,"56 Shasta Dr, Davis, CA 95616, USA","56 Shasta Dr, Davis",(530) 757-4440,
Meadow Ridge,ChIJnWW8XccrhYARwGIsg52Aup8,38.5489369,-121.69709350000001,https://maps.google.com/?cid=11509653211697668800,https://meadowridgedavis.com/,"4447 Cowell Blvd, Davis, CA 95618, USA","4447 Cowell Blvd, Davis",(530) 753-7800,https://lh3.googleusercontent.com/places/ANXAkqFET-FRehNrhJy6BBSvgHjzgykthA7VfEqIcpI6e-cUxVLOZGb5UwYR1b6d0k3A8P_tguPaQarFS53cMkWV1XMVhMDur3N7-P4=s4800-w600-h400
Pepperwood,ChIJOYVD18ophYARSApJ5N1xeZU,38.5627999,-121.7645154,https://maps.google.com/?cid=10770765181664954952,https://www.pepperwoodapartments.com/?utm_source=GBP&utm_medium=organic,"2222 Sycamore Ln, Davis, CA 95616, USA","2222 Sycamore Ln, Davis",(530) 298-7691,https://lh3.googleusercontent.com/places/ANXAkqHtf39zcTsnMWF4B_S6IdCi8FWDCkvRwWoAA67xtBFluJCIz06b_it7CwxQqMQx3kc-VPmbH9Cr6zLhOvQrwIzggL71waekEhg=s4800-w600-h400
Homestead,ChIJF6ashtUrhYARNS2CWMj5XRY,38.5530329,-121.71916920000001,https://maps.google.com/?cid=1611718880542207285,http://www.chochousing.org/homestead,"2610 Grambling Ct, Davis, CA 95618, USA","2610 Grambling Ct, Davis",(530) 758-2177,
187 Mint Street,ChIJVZyujCAphYARMb2UpKG6gnY,38.540599199999996,-121.7767849,https://maps.google.com/?cid=8539593046861593905,,"187 Mint St, Davis, CA 95616, USA","187 Mint St, Davis",,https://lh3.googleusercontent.com/place-photos/ADOriq0JdrMMc6CJHRKgVDoFNVOsy37xed32Gay2nVYcUPhbWUcOxYGkG_KbMVfZyKj-dnEV36ckltdm3bqMY3FaC3fCrleJ-cKAk2jLKrNA5_D167-seEqMoYo8y5Ry0eZVNisfM6WA=s4800-w600-h400
Atriums at La Rue Park,ChIJD754sqsphYARu7BVyD8Jt6s,38.5450185,-121.76387129999999,https://maps.google.com/?cid=12373368670772375739,http://atriums.tandemproperties.com/,"400 Russell Park, Davis, CA 95616, USA","Russell Park Community Center, 400 Russell Park, Davis",(877) 801-7285,https://lh3.googleusercontent.com/places/ANXAkqHKdv8EXVgroCBaI9LkkjWGaOTgDKTZER7YEPGBIzml9oShrk0jC-0nGHDdL60Ndf6wOk7tpwKY7I4YbzBZ5Lxb7Y8B95VPTf0=s4800-w600-h400
Sterling 5th Street,ChIJWVbWfdcphYARU0vPoxXYMgk,38.5488044,-121.7240223,https://maps.google.com/?cid=662829682631068499,https://sterling5thstreet.com/,"2100 5th St, Davis, CA 95618, USA","2100 5th St, Davis",(530) 446-2285,https://lh3.googleusercontent.com/places/ANXAkqHjQi58nX9lhQySwqsR9OMDRIzMit8thpydJvGdC8oQgDpvFu1pgt8D-g09otvO2C5FTE6OXKCSAN_xF_aFJNSPutdlrLrIyXA=s4800-w600-h400
Aggie Square Apartments,ChIJmVyds7cphYAROS8Y7UPbX_w,38.5614166,-121.75657960000001,https://maps.google.com/?cid=18185494905132429113,https://www.davisapartmentsforrent.com/aggiesquare/,"644 Alvarado Ave, Davis, CA 95616, USA","644 Alvarado Ave, Davis",(530) 758-4752,https://lh3.googleusercontent.com/places/ANXAkqGCnEdQOJJqlfmve6qZFk1oivze1QxQ7DXFdd6Csy7gmzvKezFjJmgFW4mreQ9fvETMOmF5fuXaB5P_Pwe1z9qY0xRRcme8PyI=s4800-w600-h400
Octave,ChIJV0DzlmYphYAR1BoYiWRUFVA,38.5376185,-121.72771009999998,https://maps.google.com/?cid=5770611288318679764,https://www.liveatoctaveindavis.com/?utm_source=apartmentseo&utm_medium=googlepost&utm_campaign=aseogooglemybusinesspost,"1659 Drew Cir, Davis, CA 95618, USA","1659 Drew Cir, Davis",(530) 554-4210,https://lh3.googleusercontent.com/places/ANXAkqHqVU6XjHX9hk53hcOPWPLFxJAIeg19ew2Lo03WAENxaeiExtzxaPCTn1qUC5Gd04WWDRP_a2JF6ueysrB43Q4L7C8KA7cMLYI=s4800-w600-h400
Arlington Farm,ChIJJUBZI0IohYARcV6dIR8Xe1U,38.548782599999996,-121.78596619999998,https://maps.google.com/?cid=6159542337834671729,http://arlingtonfarm.tandemproperties.com/,"2901 Portage Bay W, Davis, CA 95616, USA","2901 Portage Bay W, Davis",(877) 872-2317,https://lh3.googleusercontent.com/places/ANXAkqGsf98ohPuqaheFZKs_gzl8dkSFZzVI81XwMhEElQ0Baz4auNK3X025G8_faEqhOfjMQU7s3Udr0JfJwZCkmTpUB_2Q_ungtLg=s4800-w600-h400
Chautauqua Apartments,ChIJkX8cEcophYARcp8qx9hopGM,38.5626823,-121.75948500000001,https://maps.google.com/?cid=7179978986199097202,http://chautauqua.tandemproperties.com/,"717 Alvarado Ave, Davis, CA 95616, USA","717 Alvarado Ave, Davis",(877) 850-8611,https://lh3.googleusercontent.com/places/ANXAkqEXmvFngsTX0LpilUUwFvc9KpVpsf3YXixFYhArU4ZPNMmDxvLiApJOgN8aP-yIbTUMDuVQ8RoE-RngbOJcL-QTCi_xJV346c8=s4800-w600-h400
Viking Apartments,ChIJiyaOg6EphYARNSLLt99mhps,38.551454199999995,-121.7447921,https://maps.google.com/?cid=11206757833805341237,https://www.rentingdavis.com/viking-apartments/,"801 D St, Davis, CA 95616, USA","801 D St, Davis",(530) 756-4200,https://lh3.googleusercontent.com/places/ANXAkqFHdW7QD-AH39Jm7eHXmer_rrq9Gt5dLY7REE4bzVV7rESmdxUoYIIua3_UU7gMt7IWBABmUerWTcrG-U6rPMsWe9SA9GDDSrg=s4800-w600-h400
Anderson Place Apartments,ChIJG4xaErcphYARIkeEArPa0bY,38.5591733,-121.7551798,https://maps.google.com/?cid=13173550847411636002,http://andersonplace.tandemproperties.com/,"1850 Hanover Dr, Davis, CA 95616, USA","1850 Hanover Dr, Davis",(877) 816-3627,https://lh3.googleusercontent.com/places/ANXAkqFi1frZlF1arPgylO6FcDJ9IcaFx3v73p5gxCG1_oHh9bs12KiHayGRT52Z7ecOCu8XjwOlCS3mmnQLC9NAYgbOOhzFnJdO9pE=s4800-w600-h400
Sharps & Flats Apartment Homes,ChIJz7h3wGYphYARR5Hw4Tl_jjI,38.5376785,-121.7262296,https://maps.google.com/?cid=3642989035169812807,https://www.liveatsharpsandflats.com/?utm_source=Homes%20eo&utm_medium=googlepost&utm_campaign=aseogooglemybusinesspost,"1660 Drew Cir, Davis, CA 95618, USA","1660 Drew Cir, Davis",(530) 867-9219,https://lh3.googleusercontent.com/places/ANXAkqHgjh68h-Z8xCIzKJJp7Q6jgGB8kd1eZBaRSRja20443qhpQlljwq_46BLSG19oRvj-mC6E2cTUUzsGTsIhbIIE-e2FhuBIaGg=s4800-w600-h400
Triebhaus,ChIJXwNyr4gphYARBgGilAM-dNI,38.5497483,-121.76940539999998,https://maps.google.com/?cid=15164814030362771718,,"691 Adams St, Davis, CA 95616, USA","691 Adams St, Davis",,
Sundance Apartments,ChIJkcC-MVIohYARtjInWB9Q5Ng,38.5473607,-121.76995050000001,https://maps.google.com/?cid=15628704702435635894,http://sundance.tandemproperties.com/,"510 Arthur St, Davis, CA 95616, USA","510 Arthur St, Davis",(877) 885-1506,https://lh3.googleusercontent.com/places/ANXAkqG719XgDG9KDWRrYpR3dK0uByy3WyiGXLUMjTkDq-9Mjoe8KTZ0X8KetqYIQGAGbUql6ifMPaVeZzbuV5VlQLR0B8aX6Z-LIms=s4800-w600-h400
Cranbrook Apartments,ChIJOTKOzpcphYARNM7Qr4n25mA,38.560062699999996,-121.7414117,https://maps.google.com/?cid=6982539343505182260,http://cranbrook.tandemproperties.com/,"955 Cranbrook Ct, Davis, CA 95616, USA","955 Cranbrook Ct, Davis",(877) 814-2706,https://lh3.googleusercontent.com/places/ANXAkqHSTCYTLk5Ia_mPDynjyMBILRG8XZvSBxA04gsWbBpXVD4e8a0QGASRg06rXjtsy0qfwi9-CjC55sOiKMmycVXIHRKtziOzjCU=s4800-w600-h400
Cambridge House,ChIJEx0H5HgphYARy_0pNYsm21s,38.550741699999996,-121.7275043,https://maps.google.com/?cid=6618926456685329867,https://www.cambridgehousedavis.com/,"619 Pole Line Rd, Davis, CA 95618, USA","619 Pole Line Rd, Davis",(530) 756-4020,https://lh3.googleusercontent.com/places/ANXAkqHDnjG4YfBvIC_nal3LEpgknqgAghMr1q5QduesFlyCf5sczdvcawt4tXgSQHgKeuwi9MMVqL70KFXb2_4Qwhhs-gxhei1m7vg=s4800-w600-h400
The Drake and Anderson Court Apartments,ChIJOSifeLYphYAR-e-9Gw5XAls,38.5601501,-121.7594711,https://maps.google.com/?cid=6557899725511454713,https://www.thedrakedavis.com/,"1905 Anderson Rd, Davis, CA 95616, USA","1905 Anderson Rd, Davis",(530) 756-4488,https://lh3.googleusercontent.com/places/ANXAkqFs9r1CTDRuuk5TwP8tvvtPGksicdOCW1d9Sq1DThRigZTvtVwrKqSRyVF5w_cb36gFFuIUc-fMOeD0ol074PVG6DBwoDlRw0g=s4800-w600-h400
South Community Center,ChIJ8duHZgAphYARnMU3fFHWjoM,38.5445315,-121.76516939999998,https://maps.google.com/?cid=9479749911126197660,https://housing.ucdavis.edu/apartments/orchard-park/,"Orchard Park Apartments, 5002 Orchard Park Cir, Davis, CA 95616, USA","Orchard Park Apartments, 5002 Orchard Park Cir, Davis",,
The Willows,ChIJS2lowD0ohYARIx2SYBqpECw,38.560379499999996,-121.7875684,https://maps.google.com/?cid=3175223668050631971,http://willows.tandemproperties.com/,"1959 Lake Blvd, Davis, CA 95616, USA","1959 Lake Blvd, Davis",(888) 315-7214,https://lh3.googleusercontent.com/places/ANXAkqG8rej7hrzwkwoy39_fwqobM1_nTh2__3RkCS4bgL2jpmj2J-GEurPonqMXaKjsAbA9GJflvdP0XZIwx_oKm5LCHfnrwg7pcUg=s4800-w600-h400
The Grove at Davis,ChIJY5VLcUAohYARvCnFBGaju8g,38.5536994,-121.7859725,https://maps.google.com/?cid=14464334286792501692,https://www.thegroveapartmentsatdavis.com/,"1333 Arlington Blvd, Davis, CA 95616, USA","1333 Arlington Blvd, Davis",(530) 298-6927,https://lh3.googleusercontent.com/places/ANXAkqHGXnLMUwxPLSGPi0dF80XCRcXww-zRdJchWlRcj8-UYRpYtPZlyJk2Ffb4392mLdPB23fDmfvNQjaKpQmKF6xEslJhgmWhgC0=s4800-w600-h400
The Alhambra at Mace Ranch,ChIJs1yT5skrhYARvR7l35jAnyg,38.5571759,-121.69702950000001,https://maps.google.com/?cid=2927270045638008509,https://www.liveatalhambramaceranch.com/,"4500 Alhambra Dr, Davis, CA 95618, USA","4500 Alhambra Dr, Davis",(844) 868-4851,
Eighth Street Apartments.,ChIJmz1G35wphYAR1QttwfblZ5A,38.553843799999996,-121.73221640000001,https://maps.google.com/?cid=10405538312032685013,https://www.simmonsre.net/8th-street,"1521 E 8th St, Davis, CA 95616, USA","1521 E 8th St, Davis",(530) 758-2261,https://lh3.googleusercontent.com/places/ANXAkqFuBwKcqL_4hrZf9p-wt1mnC53jtrMSNzLau4G3IABSjG9XlDibkVkAikdh6_f_Q-_Ggf9Q_IU77oOiwML7w8UsDtZRsNbO1Ug=s4800-w600-h400
The Arbors,ChIJbTlaVHAphYARcEe1s1E60ok,38.5436955,-121.73385929999999,https://maps.google.com/?cid=9931064250887128944,https://www.thearbors.com/,"1280 Olive Dr, Davis, CA 95616, USA","1280 Olive Dr, Davis",(530) 756-2424,https://lh3.googleusercontent.com/place-photos/ADOriq1jPeUeChTSbMCzru5qswz-2GWb6-c8eZya47fdMkx-SIdmTD3ELSDNDT51dM4aHkupB_vB0l2eca_8bAaNdiSm-1_TvDC3m60uBnmvbBwIpQx83sdW-1s2Ti6J1nhkJkxOgiDEPg=s4800-w600-h400
Tanglewood,ChIJMbKjuWUphYARnv8bdCK5SyY,38.539514,-121.72895600000001,https://maps.google.com/?cid=2759502754322579358,https://www.tanglewooddavisliving.com/?utm_source=GBP&utm_medium=organic,"1880 Cowell Blvd, Davis, CA 95618, USA","1880 Cowell Blvd, Davis",(530) 564-6795,https://lh3.googleusercontent.com/places/ANXAkqFXWxbRhsP4hAhJupFS3lisFpQPs7WXf9n1A5hqmh7_6KbTXVTRNY9ciZUUjgYwgwX0o0L_GiYXrHrOlxddoNUnY7bUMaO-yOI=s4800-w600-h400
Lanai Garden Apartments,ChIJKb-f7IIphYAR5pKImxCcIiE,38.5535632,-121.72938680000001,https://maps.google.com/?cid=2387642347602612966,,"1841 E 8th St, Davis, CA 95616, USA","1841 E 8th St, Davis",(530) 753-5025,
Clearwater Apartments,ChIJc-688cYrhYAREaR2-KsYlxg,38.5483663,-121.70082279999998,https://maps.google.com/?cid=1771912105280578577,https://werent.com/davis/,"4141 Cowell Blvd, Davis, CA 95618, USA","4141 Cowell Blvd, Davis",(530) 758-2411,https://lh3.googleusercontent.com/place-photos/ADOriq3GeoSLC2ZRrpZ9M2XPEbl90S8nlMgc3AzTP1eKMS9f39Z6sdsaxWJwVdviblPoAlUkiD2H72ZiE6YPnZ5wAg0mtMmk45ddLhD0namvbdtJUmfEypKynGWBlEG3lUK1PFqhr5yhkA=s4800-w600-h400
8th & Wake,ChIJm9ECk1IohYARInDvm706284,38.5485104,-121.76692269999998,https://maps.google.com/?cid=14905571977752178722,http://www.8thandwake.com/,"1440 Wake Forest Dr, Davis, CA 95616, USA","1440 Wake Forest Dr, Davis",(530) 298-7777,https://lh3.googleusercontent.com/place-photos/ADOriq2ypqQuCqyep0vUzyn1dtRBUfCJvtOwqhvCCP-KHvzdg6OM5WtnV7hVCgzmblMBKOFX9WdWDRoQTTZFothvx6QQkOR9dOQpsjThi7V4iR-L3HcztIRu67_47WHF-Yz2CPm6hWw=s4800-w600-h400
Ellington Apartments,ChIJ8fXcQ7krhYAR7_0nUIeGF4M,38.550199,-121.69121500000001,https://maps.google.com/?cid=9446166659156409839,https://www.ellington-apts.com/?utm_source=apartmentseo&utm_medium=gmb&utm_campaign=organicmaplisting,"4849 El Cemonte Ave, Davis, CA 95618, USA","4849 El Cemonte Ave, Davis",(530) 270-3504,https://lh3.googleusercontent.com/places/ANXAkqFnTcsW4QQuTNW5XACiKrsNRJ71sgyjl2o00IipQBD0EiNb7L4x_dWXTnS6iw4NDvl_i_PnaiCxxDqDRmF-nL0Hlsq-l04Zlf8=s4800-w600-h400
Fountain Circle Townhomes,ChIJtSyz5sophYARFVILbDrrWzA,38.5622373,-121.76316219999998,https://maps.google.com/?cid=3484637372854522389,https://www.davisapartmentsforrent.com/fountaincircle/,"1213 Alvarado Ave, Davis, CA 95616, USA","1213 Alvarado Ave, Davis",(530) 753-0408,https://lh3.googleusercontent.com/places/ANXAkqFCPM_ljt_z6VF4bFrbVGjfNAUlsh0IC3vLXQMTIZYOxp3RNyrDp1MRjAYaUAp3bGB6dwKXNTj8YHaT69y8Nu8PQXYBuMzqk6o=s4800-w600-h400
New Harmony Mutual Housing Community,ChIJl0Rs8NkrhYAR9jEI8pkHwtE,38.5474543,-121.71412509999999,https://maps.google.com/?cid=15114651657180819958,https://www.newharmonymutualhousing.com/,"3030 Cowell Blvd, Davis, CA 95618, USA","3030 Cowell Blvd, Davis",(530) 758-2889,https://lh3.googleusercontent.com/place-photos/ADOriq36w647xIWh6N_XCfYj65IIlqTSk6pPFgyG6pGRpOMbDPSxl_m_eQpvnoiYRrmlAAQtAo4jy7nN24yQ-WuR0NCWokBbJF05RPPETrraXmQ0IgGdmPVUfWBJ0ZVHq2k_Z9Pt6qAZOw=s4800-w600-h400
Oakshade Commons-FPI Management,ChIJgXFY3GMphYARZasTX_n0LAc,38.5401484,-121.7240277,https://maps.google.com/?cid=517057409119923045,https://www.oakshadecommons.com/,"2120 Cowell Blvd, Davis, CA 95618, USA","2120 Cowell Blvd, Davis",(530) 747-0632,https://lh3.googleusercontent.com/places/ANXAkqFXJ1HYMqtVqPD0uuBnGEOi24j2Qcvt9_Y_9bdfI4lnxWjrpqGwoxnXRs29_R5j8hh2IA2cytW5Sp3MDjh0b6Fq_qA5TA57JNM=s4800-w600-h400
Pennsylvania Place Apartments,ChIJzVv6_54phYARBvJRnhsMHn8,38.5515057,-121.73943019999999,https://maps.google.com/?cid=9159772004877988358,https://aorealtycorp.com/848/pennsylvania-place-apartments-for-rent/davis/95616,"911 Pennsylvania Pl, Davis, CA 95616, USA","911 Pennsylvania Pl, Davis",(530) 756-3355,https://lh3.googleusercontent.com/place-photos/ADOriq20DlgNqhG1Qpe7ifzFT0BCKR0I8zNG1p0-QY7Yyn5RV8IXy7FsUvnPHJJWX32NbROG4Oj_c0qmivoF5BCPJMXXLh4pretYEMQcMQ_yX3O9NXBXVvsReSct_GleJVBlkwv3vQU=s4800-w600-h400
Del Rio Live-Work Lofts,ChIJ5QTuJtQrhYARMc4o1yD7gPE,38.551885899999995,-121.7159882,https://maps.google.com/?cid=17402185078626897457,,"2779 Del Rio Pl, Davis, CA 95618, USA","2779 Del Rio Pl, Davis",(530) 304-7513,
Creekside,ChIJiXocb0ArhYARBge_UuDS4qA,38.5533748,-121.71186589999999,https://maps.google.com/?cid=11593060251707836166,https://jsco.net/property/creekside-davis-apartments/,"2990 5th St, Davis, CA 95618, USA","2990 5th St, Davis",(530) 750-7900,https://lh3.googleusercontent.com/place-photos/ADOriq0f830v2_2UuqGyOW-HsAHjtvYogwQqSTUE_7Ll03EArmCn4FnRBy6IyG0dbr_Etgoizrqj7iGh4hnskntW_4ajkhg9xtPRgp8G5yRKI5nM4qiLR4JKVZzlbVnydfUJEp8uoEJKTw=s4800-w600-h400
Twin Pines Apartments,ChIJuaOQwnQphYARsruxPRy6Cns,38.574205,-121.7480101,https://maps.google.com/?cid=8866103446889151410,https://www.twinpinesmutualhousing.com/,"3333 F St, Davis, CA 95616, USA","3333 F St, Davis",(530) 792-0400,
Brisa Villas,ChIJp3hZPGEphYARdM95vKoD9lE,38.5385829,-121.72394029999998,https://maps.google.com/?cid=5905911993184407412,https://brisa-davis.com/,"1600 Valdora St, Davis, CA 95618, USA","1600 Valdora St, Davis",(530) 758-2662,
The Trees,ChIJofDqwGkohYAR0LXKgdXMRn0,38.5476129,-121.78861789999999,https://maps.google.com/?cid=9027127720488383952,http://www.thetreesapartmentsdavis.com/,"510 Lake Blvd, Davis, CA 95616, USA","510 Lake Blvd, Davis",(530) 758-8733,https://lh3.googleusercontent.com/place-photos/ADOriq3FuawhE0Nc4egXw7hvpQpIE5aEgDa32-xXLpeyMin3SS7SGT-O8mXO-nbcYC16b6Yu3NOo-ymUKovGgZ72xl8moravLxBo2uYOlyWg9CCJEjH88hxj_Z34KcSsH65McA5x7Q4=s4800-w600-h400
The Edge Apartments,ChIJKymPxsUrhYAR73egFucVU4k,38.548624,-121.70258369999998,https://maps.google.com/?cid=9895276888524355567,https://www.theedgeaptsdavis.com/?rcstdid=Mg%3D%3D-YRjTEizZPgM%3D&utm_source=GBP&utm_medium=organic,"4005 Cowell Blvd, Davis, CA 95618, USA","4005 Cowell Blvd, Davis",(888) 864-8935,https://lh3.googleusercontent.com/places/ANXAkqECnVDVjjxhgKffqBM_xUKgmjbYm9gygKCeginD1LmnV3qK2eFDL3FFjtGqqtIuvVeP2rB55MsvreRKGlU0hGinw4KRx3NFHtI=s4800-w600-h400
Third & C,ChIJ9x2RvbUphYARg8dkivwEZc0,38.5439497,-121.74388549999999,https://maps.google.com/?cid=14800241233123133315,,"330 3rd St, Davis, CA 95616, USA","330 3rd St, Davis",,
Muir Commons,ChIJKTTzf0cohYARcCj40vhPQ1Y,38.555968,-121.77940799999998,https://maps.google.com/?cid=6215899840811378800,,"2222 Muir Woods Pl, Davis, CA 95616, USA","2222 Muir Woods Pl, Davis",(530) 758-5202,
3rd & U Apartments,ChIJEwRBuQsphYAROAu8IVPAv9Y,38.543864299999996,-121.74628349999999,https://maps.google.com/?cid=15474298307949103928,http://collegetownrealty.net/prod03.htm,"223 3rd St, Davis, CA 95616, USA","223 3rd St, Davis",,
Walnut Terrace Apartments,ChIJ3ybeRNIrhYARwG_vxZUVQwg,38.5549581,-121.71008270000002,https://maps.google.com/?cid=595343308758151104,,"3101 5th St, Davis, CA 95618, USA","3101 5th St, Davis",(530) 771-2379,
Campus Manor,ChIJBZca6gsphYARxxyQIXocjrE,38.543292699999995,-121.7466654,https://maps.google.com/?cid=12794194902280838343,,"230 A St, Davis, CA 95616, USA","230 A St, Davis",,
301 Citron,ChIJI3lmq5MphYARJO6V9BPICpk,38.5426543,-121.7764783,https://maps.google.com/?cid=11027846625603481124,https://housing.ucdavis.edu/apartments/the-green/floor-plans/301-citron-street/,"301 Citron St, Davis, CA 95616, USA","301 Citron St, Davis",(530) 752-2033,https://lh3.googleusercontent.com/place-photos/ADOriq2nbu67WD10RxoiFf3QrQ5P7BtpcpbLZqlwzySdOcECM5nrIWKNv6WrgsCrke4EmSJIdTBw6dp4Xlxg17wAHT1sz7M6K0zziNfor5pNJphmEBiTvn5pI0dxrKqH4Cm_I0j2M1fxrA=s4800-w600-h400
Chestnut Place Apartments,ChIJQbeiLp0phYARtgcPtmZ3Spg,38.5536817,-121.73145249999999,https://maps.google.com/?cid=10973714725066442678,https://sites.google.com/view/chestnut-place-apartments,"1615 E 8th St, Davis, CA 95616, USA","1615 E 8th St, Davis",(530) 753-0695,https://lh3.googleusercontent.com/places/ANXAkqGm4paIdkViy7O1U2w5jErCadJggBw_Nvnw9pXgSNFwUkmvbH5_NknrbyI24TNy2nF8lT8K22ZJWpHDC4ux_jzGy74eZzae8FU=s4800-w600-h400
Saratoga West,ChIJeYS7zzkohYARrle8w6TWIXs,38.560055899999995,-121.77688699999999,https://maps.google.com/?cid=8872608744043468718,https://saratogawest.yolopropertymanagement.com/,"2121 Glacier Dr, Davis, CA 95616, USA","2121 Glacier Dr, Davis",(530) 297-0770,
Silverstone Apartments,ChIJpYvsN44phYARHSSzKG1kUUY,38.564516399999995,-121.72959870000001,https://maps.google.com/?cid=5066941475765560349,https://www.silverstone-davis.com/?utm_source=GMB&utm_medium=organic,"2400 Pole Line Rd, Davis, CA 95618, USA","2400 Pole Line Rd, Davis",(844) 884-1475,https://lh3.googleusercontent.com/places/ANXAkqGADOLMZNL9bDKQ0_YnDnlIujhzh3sa86Wni6SWFdF99fZ-9Rqv6zMpVqFEgmQoHURmBbTXv0KwMN3KKEJ5o8N6iuWQA-DKAnY=s4800-w600-h400
University Square,ChIJT4l_s3YphYARR-kwKoFk-cI,38.5457393,-121.73566539999999,https://maps.google.com/?cid=14049371018480380231,https://aorealtycorp.com/805/university-square-apartments-apartments-for-rent/davis/95616,"300 J St, Davis, CA 95616, USA","300 J St, Davis",(530) 753-3408,https://lh3.googleusercontent.com/place-photos/ADOriq095X3YcDPJj-6qMOXXVATJdUsxULfrqJcVDoaoJpbdOlHiFQ88b7Df56VkL0stNq0u5yviBHhYJNf-j8svCGcdIXnuoAqTO0blm8o4VZ4FO_GC--BBMSe-44ORgZBkGT-6Zs-f=s4800-w600-h400
Villa Verde Apartments,ChIJp7HrlOwphYARxJJgsgg3LW8,38.542944299999995,-121.7455806,https://maps.google.com/?cid=8011119822653919940,,"200-298 University Ave, Davis, CA 95616, USA","200-298 University Ave, Davis",,https://lh3.googleusercontent.com/place-photos/ADOriq00Vf4YpGR6TvundObzj9HOUsy6frKM8GYSNc86ZumyQ3YHlg78SLXfERDC0yLmcenCL8YNJexW_btSrp7VaM6oC7lwGzgiMEjy6S1PHPGVeOWlXmuPmgfd1KqTbOgB8MZsvfPVvA=s4800-w600-h400
Tremont Green,ChIJYTKz5KArhYAR4Et_ZIXj5RA,38.552204200000006,-121.6764712,https://maps.google.com/?cid=1217629436329806816,https://www.tremontgreenmutualhousing.com/,"5663 Marden St, Davis, CA 95618, USA","5663 Marden St, Davis",(530) 747-0368,
Piñon,ChIJzxE7PlMohYAR-uFZlhH_imA,38.5471408,-121.76661089999999,https://maps.google.com/?cid=6956653025429152250,https://www.tccproperties.net/property/pinon-apartments/,"555 Guava Ln, Davis, CA 95616, USA","555 Guava Ln, Davis",(530) 753-7555,https://lh3.googleusercontent.com/place-photos/ADOriq2ilaf5RfxDvf-TWGKCmVKC_iD_QrUn6UrrtU9DQ4kOPYshZLNXc1m_aFRE5pX39vD9vafIEovpbihEox2foV5eiGugVpAVaN4g_m3BRdWk5D5ye_TDu_27SwYoR1keoLg9nno9tg=s4800-w600-h400
El Macero Apartments,ChIJDZoKNrkrhYAR1HxBWuF_33E,38.549407099999996,-121.69275739999999,https://maps.google.com/?cid=8205417651950943444,https://www.liveatelmacero.com/?utm_source=apartmentseo&utm_medium=gmb&utm_campaign=organicmaplisting,"4735 Cowell Blvd, Davis, CA 95618, USA","4735 Cowell Blvd, Davis",(530) 657-0375,https://lh3.googleusercontent.com/places/ANXAkqGpmnpg8PVxEPjHJ4S2Qw0flOFg5kr1t_Svn87UCBnxNSlVb6ZhUOCzKAI5WuOJU9_Szt2yoSf-hlegKX4H1ROYnY3iIA2IxQA=s4800-w600-h400
Apartment,ChIJR2ndRxcphYAR7MpQgz3VTQo,38.5413407,-121.77702049999999,https://maps.google.com/?cid=742483973758831340,,"2231 Jade St, Davis, CA 95616, USA","2231 Jade St, Davis",,https://lh3.googleusercontent.com/place-photos/ADOriq2ttguxFJJlpI6F_5heF4nL2ESClPgt1L2WBO8fBFrPTl16YZzyqLirT3jNLc-MNGBlm2c1LHjGQbwEpiOnpeB5fGiv8F4Q37RlYRPWi2O62m7QXwtodTVWO-_HDsXkQ8BoxIr1=s4800-w600-h400
Sol at West Village,ChIJwxvYcVYohYAR1jUlI_m1sqk,38.540895,-121.7711453,https://maps.google.com/?cid=12228036019905443286,https://www.solatwestvillage.com/?utm_source=GoogleMyBusiness&utm_medium=organic&utm_campaign=GMB,"1580 Jade St, Davis, CA 95616, USA","University of California Davis West Village, 1580 Jade St, Davis",(888) 413-6053,https://lh3.googleusercontent.com/places/ANXAkqGX2N33OHlKGtBvQ5_iuQZx4wbW32TS00ZmQGgjp00Vp58RcDLI-s9Oj5jN52Y6I3NjCATsERratBqzOvPhO4AAewuQiKXNJu0=s4800-w600-h400
gps,ChIJU2dET7gphYARU4KZf_oAHHU,38.5428917,-121.73515289999997,https://maps.google.com/?cid=8438620877668057683,,"1220 Olive Dr apt 141, Davis, CA 95616, USA","1220 Olive Dr apt 141, Davis",,
Aspen Village,ChIJLV7WpzgohYAR52Khg4WZ9Os,38.5554279,-121.78156020000002,https://maps.google.com/?cid=17002383291948557031,https://aspenvillage.yolopropertymanagement.com/,"2323 Shasta Dr, Davis, CA 95616, USA","2323 Shasta Dr, Davis",(530) 758-2505,
"Adelante, a Mutual Housing Community for families with young children",ChIJi7AjsgUphYARurQ0NIjrzig,38.548741,-121.72481119999999,https://maps.google.com/?cid=2940546576943461562,https://www.adelantemutualhousing.com/,"2050 5th St, Davis, CA 95618, USA","2050 5th St, Davis",(530) 746-7957,
山葵村（戴维斯分店）,ChIJC05NRwAphYARM6fcGYh_CnY,38.5375958,-121.72442219999999,https://maps.google.com/?cid=8505751068768773939,,"1701 Evergreen Ct, Davis, CA 95618, USA","1701 Evergreen Ct, Davis",,
Oxford Parkside,ChIJ2_abKFMohYARKPW88Pn-Y24,38.5481607,-121.76569149999999,https://maps.google.com/?cid=7954481716305655080,,"1424 Wake Forest Dr, Davis, CA 95616, USA","1424 Wake Forest Dr, Davis",(530) 758-3100,
翻斗花园超绝牛爷爷的房间,ChIJMbVYBQAphYAR34H9gH5LM_U,38.5413318,-121.77594719999998,https://maps.google.com/?cid=17668548769806647775,,"2145 Jade St, Davis, CA 95616, USA","University of California Davis West Village, 2145 Jade St, Davis",,
Le Tournesol,ChIJUWysgkQohYARlmV00WwHuPc,38.5473636,-121.78236779999999,https://maps.google.com/?cid=17850025287034889622,,"2640 Portage Bay E, Davis, CA 95616, USA","2640 Portage Bay E, Davis",(530) 758-2462,
Shauntel's,ChIJJYJyT58phYAR2rHXqEpMm4E,38.5601604,-121.7786228,https://maps.google.com/?cid=9339142135826854362,,"2225 Glacier Dr, Davis, CA 95616, USA","2225 Glacier Dr, Davis",,
Primero Grove,ChIJY37vFqgphYARYXs50LDjJ5E,38.5453778,-121.7558956,https://maps.google.com/?cid=10459579008138443617,https://housing.ucdavis.edu/apartments/primero-grove/,"Primero Grove, Davis, CA 95616, USA","Primero Grove, Davis",(530) 754-8455,https://lh3.googleusercontent.com/place-photos/ADOriq1UXkxF0wMxcSv6MF-dPermDopAaElQ9xlyjuHdmqDLshoUYf9TmIqMJNHhgE66r4WC94X9yGA69Zchhn9v2Xe6fCj8fkxSgCTLpwc6j2NfUl7HuYBe84Y_-48Mlzn0BkMAydYlQw=s4800-w600-h400
“The Lofts”,ChIJvygaBykphYARFLPSeajr5AU,38.5423427,-121.74097440000001,https://maps.google.com/?cid=424723373710553876,,"105 E St, Davis, CA 95616, USA","105 E St, Davis",,https://lh3.googleusercontent.com/place-photos/ADOriq2WSd0lK9ZSzVfdeG9X84ntPJT6zw9UrunquBhAlC5IiM-XAivTLvBgiPli6fJbPwGL_lmeykQYaoqEBuS59cTfM6RQOwg2_9_IIGfNeMfJnm5swCB80MEuKBVMCnUemHDXlNJq=s4800-w600-h400
Wake Forest,ChIJDYgP3awphYAR0Zq08azU7Y4,38.548201399999996,-121.7634292,https://maps.google.com/?cid=10299121762120800977,https://www.wakeforestdavis.com/?utm_source=GMB&utm_medium=organic,"1313 Wake Forest Dr, Davis, CA 95616, USA","1313 Wake Forest Dr, Davis",(530) 756-2555,https://lh3.googleusercontent.com/place-photos/ADOriq2xChEdQYw3diUyaV7wy4EEbDJsMmeBy2xwDKtLPGIc_ihjAbpxu52DnowsTPYT3YBi6rhKhwjLvoa5_FdRqRQ_Ar0r_ugej24P41x89YerrlH7FhNjVeWFfjq5Sa-PQiUj2g8=s4800-w600-h400
UC Davis Apartments,ChIJJyRSafYphYARlr1GrskGpN4,38.540570699999996,-121.7768311,https://maps.google.com/?cid=16042955235882614166,https://housing.ucdavis.edu/apartments/the-green/,"187 Mint St, Davis, CA 95616, USA","187 Mint St, Davis",(530) 752-2033,https://lh3.googleusercontent.com/place-photos/ADOriq2ZpTGzzmjinlu6kr2EwX_0ClFcxzct9SgOjgKU96VA_3GFzAjVAcWLn_kQOhozPniufWQcu_N2YzK_rVVqR4_jGVPHD80oc-QInnm6rXOgTM4Jo0ZNRN3nnLMMD5jUqm2QrXoq=s4800-w600-h400
Parkside Apartments,ChIJ8ZuJT70phYARATCgBxyCKWQ,38.5580366,-121.7434179,https://maps.google.com/?cid=7217442934736564225,https://www.parkside-apartments.com/?rcstdid=Mg%3D%3D-YRjTEizZPgM%3D&utm_source=GMB&utm_medium=organic,"1420 F St, Davis, CA 95616, USA","1420 F St, Davis",(833) 752-6201,https://lh3.googleusercontent.com/places/ANXAkqFNMs57WX6ZzIL5z7fBaHd-oNl8F0KPWMkR7iBWrpNlC60hyTb4ba0vuIgKo85q_DOPSBs6-MqFpilj9l9vAlKUK9o6f22pZvY=s4800-w600-h400
Becerra Plaza,ChIJ52e7BsUrhYARK30RdYzWWAI,38.5479512,-121.705486,https://maps.google.com/?cid=169120884774239531,http://www.accessiblespace.org/becerra-plaza-apartments,"326 Becerra Way, Davis, CA 95618, USA","326 Becerra Way, Davis",(800) 466-7722,https://lh3.googleusercontent.com/places/ANXAkqFRne2VpH8DXAWYrSUjKj9qCnuWSAss0A2kCa_Su4qQ8WSR4dE8c2bbX3T218f4_BSfD8rH9WGSfI1-nbeEa_XMCcECj74upO4=s4800-w600-h400
Aero Apartments,ChIJidXngbYphYARi8JqrRY1Rv8,38.5594813,-121.7594912,https://maps.google.com/?cid=18394448099556377227,https://www.sterlingpointeapartments.com/,"1805 Anderson Rd, Davis, CA 95616, USA","1805 Anderson Rd, Davis",(530) 564-0115,https://lh3.googleusercontent.com/places/ANXAkqGaOEdzDAem1iQq_Kx_r1R92MORxpL1dIMeqJLyx7g6vKGpWboA-oGtnK9lR_vu8bvpN1nbYczgSrTObVCM2Zfts_Uui4MEoAY=s4800-w600-h400
Sequoia,ChIJ01we0TQohYARHqqBUfBqD1U,38.5627462,-121.76589290000001,https://maps.google.com/?cid=6129235198266681886,http://www.sequoiaapartment.com/,"2255 Sycamore Ln, Davis, CA 95616, USA","2255 Sycamore Ln, Davis",(530) 756-9592,https://lh3.googleusercontent.com/places/ANXAkqGkgO8W-IRJsunDmQ93isjMSsrxfRGodsvpmhUzg6d7-jgVl7yBJcKEggC1JzL_HbeF9h0rXYJFSqLiTYkJFht5S-bZfyVxCrg=s4800-w600-h400
Mission Villas Community,ChIJvWj1c3ophYARW-xR8Dh-l5c,38.5433331,-121.74484170000001,https://maps.google.com/?cid=10923338204225596507,,"225 B St, Davis, CA 95616, USA","225 B St, Davis",,https://lh3.googleusercontent.com/place-photos/ADOriq0HahrGlDDkQrq-xSQJfFdcfFfR5g_4yZBZcMVx6sc3xb7W0XkI8Hrj_NU9WCJI-YeSE03VaX_th-NNFolFGRs_7nyc_TmViJczeQpGYZQsZbo4iyUcxmKAdUF0qO3fOSwtaK3r=s4800-w600-h400
Owendale Community,ChIJhTds8NkrhYARKcRAhziJxLQ,38.5465051,-121.7143802,https://maps.google.com/?cid=13025686898142659625,https://www.owendalemutualhousing.com/,"3023 Albany Ave, Davis, CA 95618, USA","3023 Albany Ave, Davis",(530) 753-2573,https://lh3.googleusercontent.com/place-photos/ADOriq3D3BjQfxza7vVuIJz6PgJNmmmii9mDjxHSXo49VialrE-rsn5EXxBw9-YXEXZBjlE7jFrfN9hEm7MyNj6t8SVI9xsbVUSOMyN5Cm0juyrb4NuufjEsEAgzJzF51cWbaq2sI4H4=s4800-w600-h400
Hanover Place Apartments,ChIJH6PoxrYphYAR5uVqMi56PY4,38.5586421,-121.75724089999999,https://maps.google.com/?cid=10249482665798067686,http://hanoverplaceapts.com/,"1740 Hanover Dr, Davis, CA 95616, USA","1740 Hanover Dr, Davis",(530) 758-7320,https://lh3.googleusercontent.com/places/ANXAkqF4219u0KgE35E9ZiLVMbsMPlKOZ-EalOQryoklNBx-dKcg-5R1s7s5ylfUI_qJO02XjZcmlGwsxalJOZetOoNDBdbPFw0v6J0=s4800-w600-h400
Kings & Queens Apartments,ChIJN4T-a58phYARqWQy6lyj1WQ,38.5518175,-121.74125259999998,https://maps.google.com/?cid=7265893193293653161,https://www.simmonsre.net/newpage,"801 E 8th St, Davis, CA 95616, USA","801 E 8th St, Davis",(530) 753-9609,https://lh3.googleusercontent.com/places/ANXAkqEFt7IWMo0uKRbmMOtGER97plb6_S1pKQtnlcF50YCSINO4bAlyE14xzgXlKhpVQjSKdlVGLklPjclFw2S39zwJoaPjZ96eDfI=s4800-w600-h400
Windmere Apartments,ChIJZ3TMItIrhYARSBIXe_764js,38.553505,-121.7100136,https://maps.google.com/?cid=4315287363868103240,http://www.chochousing.org/windmere,"3100 5th St, Davis, CA 95618, USA","3100 5th St, Davis",(530) 757-4438,https://lh3.googleusercontent.com/place-photos/ADOriq0RcQp5NrVl34tp_o2ecstLF5NYcvEfq2xAVh_xTzaXT7B56d83uQpyT0RNB9ouMoW7Jp7lYgsG8ybHEDPDOtTjQ7SlTkWyTZDK0KNNK5AmVzEJNINOl7tuzTkjRctvCykKk-iK=s4800-w600-h400
Woodside Apartments,ChIJnwQLXp8phYARzleb14tQofo,38.552068399999996,-121.7419302,https://maps.google.com/?cid=18059804542280357838,https://www.tccproperties.net/property/woodside-apartments/,"808 F St, Davis, CA 95616, USA","808 F St, Davis",(530) 400-8685,
纯爱甘露寺,ChIJlXYhEgAphYAR8VgScZJSWl0,38.5386734,-121.77136859999999,https://maps.google.com/?cid=6726779782346987761,,"Hutchison & Sage (NB, Davis, CA 95616, USA","Hutchison & Sage (NB, University of California Davis West Village, Davis",,
Glide Terrace Apartments,ChIJYe78qrsrhYART2S2XuISoqI,38.5526029,-121.68834799999999,https://maps.google.com/?cid=11718949943832372303,,"5101 Glide Dr, Davis, CA 95618, USA","5101 Glide Dr, Davis",,
184 Horizon,ChIJD98rX00phYARGRoSFcTuxgo,38.5405844,-121.7786625,https://maps.google.com/?cid=776570511702497817,https://housing.ucdavis.edu/apartments/the-green/,"184 Horizon St, Davis, CA 95616, USA","184 Horizon St, Davis",(530) 752-2033,https://lh3.googleusercontent.com/place-photos/ADOriq249g0T8zGxJ1Rsj46nyqQcQEUvOo1WRYOVcRE5oU1U_sv4IJBwRPfgfMj27FB9UbH0oVRVstNjyFh6B1fkNqdleZaCLtttpK6yLcQWMjTAG7O8mRIv24GE3NKUKCH3_WXjfeSH=s4800-w600-h400
Parque Plaza,ChIJp6z6F7YphYARG30IyGbg5P8,38.5614876,-121.7578088,https://maps.google.com/?cid=18439109506408938779,https://www.simmonsre.net/parque-plaza,"690 Alvarado Ave, Davis, CA 95616, USA","690 Alvarado Ave, Davis",(530) 758-0690,https://lh3.googleusercontent.com/places/ANXAkqGjeoMlZ-2V26Wg07ey-M0w3OnEJAO8DFD0kNCeymEGFgbd8J22KJdNKv8jbtsnDnd94HAo3lC637Hc4oISF9NEX2W-fKZSeQ=s4800-w600-h400
Drake Apartments,ChIJA27O17UphYAR2DQ6ud_s-fY,38.5603955,-121.76097340000001,https://maps.google.com/?cid=17796515848160687320,https://www.thedrakedavis.com/,"919 Drake Dr, Davis, CA 95616, USA","919 Drake Dr, Davis",(530) 756-6465,https://lh3.googleusercontent.com/places/ANXAkqEYEL-vylfAMwEo0mhKy06vGED2Nb1k4mawFiBN_tAa0KUdFMoVWSB9GWrOzUvecwfhk_-rmYJENZgkzfs8JGkgthbP18JTWek=s4800-w600-h400
Tuscany Villas Apartments,ChIJFQK57n8phYAR0txZeLRVBY8,38.554021,-121.72053299999997,https://maps.google.com/?cid=10305737555908877522,http://www.chochousing.org/tuscany-villas,"2526 E 8th St #203, Davis, CA 95618, USA","2526 E 8th St #203, Davis",(530) 757-4443,
Arrowhead,ChIJdSnPZL4phYAR2MYiRzDjYBg,38.5623846,-121.74472050000001,https://maps.google.com/?cid=1756653651165890264,,"Bueno Dr, Davis, CA 95616, USA","Bueno Dr, Davis",,
Dowling Properties,ChIJw025TAsphYARr_bxEUUoFTs,38.544578099999995,-121.7423211,https://maps.google.com/?cid=4257353299867596463,https://davisca.com/,"503 3rd St, Davis, CA 95616, USA","503 3rd St, Davis",(530) 753-1000,https://lh3.googleusercontent.com/places/ANXAkqFtke9cDHapuze62jAH0SD64wF_pKa9wsQ_phQXxcAG_y7cSYajrPrfi9UaVhvInksvzeFOouxF9H0YzLBLJJ7uy_Vse2qKYxo=s4800-w600-h400
